[{"OBJECT_NAME":"TIANMU-1 12","OBJECT_ID":"2023-205B","EPOCH":"2026-03-09T23:16:21.235872","MEAN_MOTION":15.25812065,"ECCENTRICITY":0.00067383,"INCLINATION":97.3538,"RA_OF_ASC_NODE":91.8946,"ARG_OF_PERICENTER":353.283,"MEAN_ANOMALY":6.8317,"EPHEMERIS_TYPE":0,"CLASSIFICATION_TYPE":"U","NORAD_CAT_ID":58646,"ELEMENT_SET_NO":999,"REV_AT_EPOCH":12237,"BSTAR":0.00029269543,"MEAN_MOTION_DOT":7.417e-5,"MEAN_MOTION_DDOT":0},{"OBJECT_NAME":"STARLINK-36097","OBJECT_ID":"2025-298S","EPOCH":"2026-03-09T21:42:20.478816","MEAN_MOTION":15.26086669,"ECCENTRICITY":0.00039178,"INCLINATION":70.003,"RA_OF_ASC_NODE":12.9557,"ARG_OF_PERICENTER":200.4809,"MEAN_ANOMALY":159.6208,"EPHEMERIS_TYPE":0,"CLASSIFICATION_TYPE":"U","NORAD_CAT_ID":67091,"ELEMENT_SET_NO":999,"REV_AT_EPOCH":1327,"BSTAR":0.0027728212,"MEAN_MOTION_DOT":0.00072258,"MEAN_MOTION_DDOT":0}]
